{"type": "FeatureCollection", "features": [ {"type": "Feature", "properties": {"norad_id": 43648, "name": "BEIDOU-3 M15 (C34)", "group": "gnss", "lat": -9.753782986183781, "lon": 133.2735529203673, "alt_km": 21540.54228493042, "timestamp": "2025-12-22T05:49:03.742694+00:00", "meta": {"OBJECT_NAME": "BEIDOU-3 M15 (C34)", "OBJECT_ID": "2018-078B", "EPOCH": "2025-12-21T10:03:31.555008", "MEAN_MOTION": 1.86232355, "ECCENTRICITY": 0.0004029, "INCLINATION": 54.2498, "RA_OF_ASC_NODE": 306.2184, "ARG_OF_PERICENTER": 19.9234, "MEAN_ANOMALY": 340.0899, "EPHEMERIS_TYPE": 0, "CLASSIFICATION_TYPE": "U", "NORAD_CAT_ID": 43648, "ELEMENT_SET_NO": 999, "REV_AT_EPOCH": 4886, "BSTAR": 0, "MEAN_MOTION_DOT": -6.1e-07, "MEAN_MOTION_DDOT": 0}, "tle": {"line1": "1 43648U 18078B   25355.41911522 -.00000061  00000+0  00000+0 0  9990", "line2": "2 43648  54.2498 306.2184 0004029  19.9234 340.0899  1.86232355 48860"}}, "geometry": {"type": "Point", "coordinates": [133.2735529203673, -9.753782986183781]}}, {"type": "Feature", "properties": {"norad_id": 43683, "name": "BEIDOU-3 G1 (C59)", "group": "gnss", "lat": -1.5524907623818025, "lon": -41.714677911573624, "alt_km": 35793.79489325668, "timestamp": "2025-12-22T05:49:03.742706+00:00", "meta": {"OBJECT_NAME": "BEIDOU-3 G1 (C59)", "OBJECT_ID": "2018-085A", "EPOCH": "2025-12-21T20:42:43.005600", "MEAN_MOTION": 1.00267994, "ECCENTRICITY": 0.0001544, "INCLINATION": 2.6295, "RA_OF_ASC_NODE": 102.6989, "ARG_OF_PERICENTER": 45.7084, "MEAN_ANOMALY": 32.9511, "EPHEMERIS_TYPE": 0, "CLASSIFICATION_TYPE": "U", "NORAD_CAT_ID": 43683, "ELEMENT_SET_NO": 999, "REV_AT_EPOCH": 2628, "BSTAR": 0, "MEAN_MOTION_DOT": -2.58e-06, "MEAN_MOTION_DDOT": 0}, "tle": {"line1": "1 43683U 18085A   25355.86299775 -.00000258  00000+0  00000+0 0  9993", "line2": "2 43683   2.6295 102.6989 0001544  45.7084  32.9511  1.00267994 26284"}}, "geometry": {"type": "Point", "coordinates": [-41.714677911573624, -1.5524907623818025]}}, {"type": "Feature", "properties": {"norad_id": 43687, "name": "COSMOS 2529 (757)", "group": "gnss", "lat": -19.36645648394851, "lon": -171.1821915339256, "alt_km": 19131.17771212312, "timestamp": "2025-12-22T05:49:03.742720+00:00", "meta": {"OBJECT_NAME": "COSMOS 2529 (757)", "OBJECT_ID": "2018-086A", "EPOCH": "2025-12-21T07:58:09.469056", "MEAN_MOTION": 2.13102139, "ECCENTRICITY": 0.0006927, "INCLINATION": 64.2926, "RA_OF_ASC_NODE": 198.598, "ARG_OF_PERICENTER": 253.6898, "MEAN_ANOMALY": 106.3061, "EPHEMERIS_TYPE": 0, "CLASSIFICATION_TYPE": "U", "NORAD_CAT_ID": 43687, "ELEMENT_SET_NO": 999, "REV_AT_EPOCH": 5549, "BSTAR": 0, "MEAN_MOTION_DOT": 9.7e-07, "MEAN_MOTION_DDOT": 0}, "tle": {"line1": "1 43687U 18086A   25355.33205404  .00000097  00000+0  00000+0 0  9996", "line2": "2 43687  64.2926 198.5980 0006927 253.6898 106.3061  2.13102139 55496"}}, "geometry": {"type": "Point", "coordinates": [-171.1821915339256, -19.36645648394851]}}, {"type": "Feature", "properties": {"norad_id": 43706, "name": "BEIDOU-3 M17 (C36)", "group": "gnss", "lat": 53.909789827897484, "lon": -89.14112925612055, "alt_km": 21534.562960428106, "timestamp": "2025-12-22T05:49:03.742733+00:00", "meta": {"OBJECT_NAME": "BEIDOU-3 M17 (C36)", "OBJECT_ID": "2018-093A", "EPOCH": "2025-12-20T12:04:20.840736", "MEAN_MOTION": 1.86228485, "ECCENTRICITY": 0.00060883, "INCLINATION": 54.1751, "RA_OF_ASC_NODE": 188.3582, "ARG_OF_PERICENTER": 307.8758, "MEAN_ANOMALY": 51.559, "EPHEMERIS_TYPE": 0, "CLASSIFICATION_TYPE": "U", "NORAD_CAT_ID": 43706, "ELEMENT_SET_NO": 999, "REV_AT_EPOCH": 4820, "BSTAR": 0, "MEAN_MOTION_DOT": 9.7e-07, "MEAN_MOTION_DDOT": 0}, "tle": {"line1": "1 43706U 18093A   25354.50301899  .00000097  00000+0  00000+0 0  9999", "line2": "2 43706  54.1751 188.3582 0006088 307.8758  51.5590  1.86228485 48203"}}, "geometry": {"type": "Point", "coordinates": [-89.14112925612055, 53.909789827897484]}}, {"type": "Feature", "properties": {"norad_id": 43707, "name": "BEIDOU-3 M18 (C37)", "group": "gnss", "lat": 1.2755204122535035, "lon": 7.373377467229353, "alt_km": 21545.842300516666, "timestamp": "2025-12-22T05:49:03.742745+00:00", "meta": {"OBJECT_NAME": "BEIDOU-3 M18 (C37)", "OBJECT_ID": "2018-093B", "EPOCH": "2025-12-20T21:39:28.587744", "MEAN_MOTION": 1.86226757, "ECCENTRICITY": 0.00062168, "INCLINATION": 54.1741, "RA_OF_ASC_NODE": 188.3365, "ARG_OF_PERICENTER": 353.7926, "MEAN_ANOMALY": 6.2524, "EPHEMERIS_TYPE": 0, "CLASSIFICATION_TYPE": "U", "NORAD_CAT_ID": 43707, "ELEMENT_SET_NO": 999, "REV_AT_EPOCH": 4821, "BSTAR": 0, "MEAN_MOTION_DOT": 9.5e-07, "MEAN_MOTION_DDOT": 0}, "tle": {"line1": "1 43707U 18093B   25354.90241421  .00000095  00000+0  00000+0 0  9996", "line2": "2 43707  54.1741 188.3365 0006216 353.7926   6.2524  1.86226757 48217"}}, "geometry": {"type": "Point", "coordinates": [7.373377467229353, 1.2755204122535035]}}, {"type": "Feature", "properties": {"norad_id": 43873, "name": "GPS BIII-1  (PRN 04)", "group": "gnss", "lat": 12.884707214793703, "lon": -89.83949299981622, "alt_km": 20095.945652369126, "timestamp": "2025-12-22T05:49:03.742758+00:00", "meta": {"OBJECT_NAME": "GPS BIII-1  (PRN 04)", "OBJECT_ID": "2018-109A", "EPOCH": "2025-12-20T14:49:36.231744", "MEAN_MOTION": 2.00553966, "ECCENTRICITY": 0.0037575, "INCLINATION": 55.571, "RA_OF_ASC_NODE": 99.2363, "ARG_OF_PERICENTER": 195.36, "MEAN_ANOMALY": 236.122, "EPHEMERIS_TYPE": 0, "CLASSIFICATION_TYPE": "U", "NORAD_CAT_ID": 43873, "ELEMENT_SET_NO": 999, "REV_AT_EPOCH": 5149, "BSTAR": 0, "MEAN_MOTION_DOT": -1.2e-07, "MEAN_MOTION_DDOT": 0}, "tle": {"line1": "1 43873U 18109A   25354.61778046 -.00000012  00000+0  00000+0 0  9994", "line2": "2 43873  55.5710  99.2363 0037575 195.3600 236.1220  2.00553966 51494"}}, "geometry": {"type": "Point", "coordinates": [-89.83949299981622, 12.884707214793703]}}, {"type": "Feature", "properties": {"norad_id": 44231, "name": "BEIDOU-2 G8 (C01)", "group": "gnss", "lat": -1.581472238279987, "lon": -37.23767010227496, "alt_km": 35751.29352754702, "timestamp": "2025-12-22T05:49:03.742770+00:00", "meta": {"OBJECT_NAME": "BEIDOU-2 G8 (C01)", "OBJECT_ID": "2019-027A", "EPOCH": "2025-12-19T12:14:23.449632", "MEAN_MOTION": 1.00276563, "ECCENTRICITY": 0.0008196, "INCLINATION": 1.6785, "RA_OF_ASC_NODE": 74.7229, "ARG_OF_PERICENTER": 258.5641, "MEAN_ANOMALY": 83.1013, "EPHEMERIS_TYPE": 0, "CLASSIFICATION_TYPE": "U", "NORAD_CAT_ID": 44231, "ELEMENT_SET_NO": 999, "REV_AT_EPOCH": 2427, "BSTAR": 0, "MEAN_MOTION_DOT": -2.24e-06, "MEAN_MOTION_DDOT": 0}, "tle": {"line1": "1 44231U 19027A   25353.50999363 -.00000224  00000+0  00000+0 0  9992", "line2": "2 44231   1.6785  74.7229 0008196 258.5641  83.1013  1.00276563 24270"}}, "geometry": {"type": "Point", "coordinates": [-37.23767010227496, -1.581472238279987]}}, {"type": "Feature", "properties": {"norad_id": 44299, "name": "COSMOS 2534 (758)", "group": "gnss", "lat": 56.21272304430523, "lon": -27.312633160686566, "alt_km": 19145.586475860055, "timestamp": "2025-12-22T05:49:03.742782+00:00", "meta": {"OBJECT_NAME": "COSMOS 2534 (758)", "OBJECT_ID": "2019-030A", "EPOCH": "2025-12-21T10:55:51.060576", "MEAN_MOTION": 2.13102432, "ECCENTRICITY": 0.00087289, "INCLINATION": 64.366, "RA_OF_ASC_NODE": 198.5992, "ARG_OF_PERICENTER": 284.1192, "MEAN_ANOMALY": 304.9695, "EPHEMERIS_TYPE": 0, "CLASSIFICATION_TYPE": "U", "NORAD_CAT_ID": 44299, "ELEMENT_SET_NO": 999, "REV_AT_EPOCH": 5113, "BSTAR": 0, "MEAN_MOTION_DOT": 9.7e-07, "MEAN_MOTION_DDOT": 0}, "tle": {"line1": "1 44299U 19030A   25355.45545209  .00000097  00000+0  00000+0 0  9999", "line2": "2 44299  64.3660 198.5992 0008728 284.1192 304.9695  2.13102432 51134"}}, "geometry": {"type": "Point", "coordinates": [-27.312633160686566, 56.21272304430523]}}, {"type": "Feature", "properties": {"norad_id": 44337, "name": "BEIDOU-3 IGSO-2 (C39)", "group": "gnss", "lat": 34.070501126947796, "lon": -47.66105880681376, "alt_km": 35716.41762559092, "timestamp": "2025-12-22T05:49:03.742793+00:00", "meta": {"OBJECT_NAME": "BEIDOU-3 IGSO-2 (C39)", "OBJECT_ID": "2019-035A", "EPOCH": "2025-12-21T20:36:58.555584", "MEAN_MOTION": 1.00268615, "ECCENTRICITY": 0.003767, "INCLINATION": 55.2286, "RA_OF_ASC_NODE": 160.4212, "ARG_OF_PERICENTER": 202.2751, "MEAN_ANOMALY": 156.6023, "EPHEMERIS_TYPE": 0, "CLASSIFICATION_TYPE": "U", "NORAD_CAT_ID": 44337, "ELEMENT_SET_NO": 999, "REV_AT_EPOCH": 2388, "BSTAR": 0, "MEAN_MOTION_DOT": -7.4e-07, "MEAN_MOTION_DDOT": 0}, "tle": {"line1": "1 44337U 19035A   25355.85901106 -.00000074  00000+0  00000+0 0  9999", "line2": "2 44337  55.2286 160.4212 0037670 202.2751 156.6023  1.00268615 23882"}}, "geometry": {"type": "Point", "coordinates": [-47.66105880681376, 34.070501126947796]}}, {"type": "Feature", "properties": {"norad_id": 44506, "name": "GPS BIII-2  (PRN 18)", "group": "gnss", "lat": 46.50859242186279, "lon": 24.12351777868641, "alt_km": 20288.125167469207, "timestamp": "2025-12-22T05:49:03.742806+00:00", "meta": {"OBJECT_NAME": "GPS BIII-2  (PRN 18)", "OBJECT_ID": "2019-056A", "EPOCH": "2025-12-21T09:31:28.987392", "MEAN_MOTION": 2.00566631, "ECCENTRICITY": 0.00577334, "INCLINATION": 55.7184, "RA_OF_ASC_NODE": 338.2094, "ARG_OF_PERICENTER": 198.5612, "MEAN_ANOMALY": 332.7674, "EPHEMERIS_TYPE": 0, "CLASSIFICATION_TYPE": "U", "NORAD_CAT_ID": 44506, "ELEMENT_SET_NO": 999, "REV_AT_EPOCH": 4650, "BSTAR": 0, "MEAN_MOTION_DOT": -7.2e-07, "MEAN_MOTION_DDOT": 0}, "tle": {"line1": "1 44506U 19056A   25355.39686328 -.00000072  00000+0  00000+0 0  9993", "line2": "2 44506  55.7184 338.2094 0057733 198.5612 332.7674  2.00566631 46503"}}, "geometry": {"type": "Point", "coordinates": [24.12351777868641, 46.50859242186279]}}]}